ACS3                    
1 59588U 24077B   24225.57779999  .00000216  00000+0  28913-3 0  9996
2 59588  97.4024 280.6520 0018934 302.2690  57.6626 13.67697605 15113
